[
    {
        "Altitude(m)": 710076.3107667093,
        "Argument of Periapsis(deg)": 0.011390121186627068,
        "Eccentricity": 0.0,
        "Inclination(deg)": 45.0,
        "Latitude(deg)": -25.695520815709887,
        "Longitude(deg)": -4.366984824036283,
        "Mean Anomaly(deg)": -37.55768335251911,
        "RAAN(deg)": 124.9892480585418,
        "Satellite Name": "Constellation 1 569",
        "Satellite Number": 569,
        "Semi-Major Axis(m)": 7083131.272910544,
        "Time(s)": 190
    },
    {
        "Altitude(m)": 710062.4810716847,
        "Argument of Periapsis(deg)": 0.011450069192872472,
        "Eccentricity": 0.0,
        "Inclination(deg)": 45.0,
        "Latitude(deg)": -25.657689592800395,
        "Longitude(deg)": -4.318472742196775,
        "Mean Anomaly(deg)": -37.49698221226923,
        "RAAN(deg)": 124.98919146937624,
        "Satellite Name": "Constellation 1 569",
        "Satellite Number": 569,
        "Semi-Major Axis(m)": 7083131.272910544,
        "Time(s)": 191
    },
    {
        "Altitude(m)": 710048.6529828436,
        "Argument of Periapsis(deg)": 0.01151001719911788,
        "Eccentricity": 0.0,
        "Inclination(deg)": 45.0,
        "Latitude(deg)": -25.61983913787537,
        "Longitude(deg)": -4.269993712652028,
        "Mean Anomaly(deg)": -37.436281072019284,
        "RAAN(deg)": 124.98913488021067,
        "Satellite Name": "Constellation 1 569",
        "Satellite Number": 569,
        "Semi-Major Axis(m)": 7083131.272910544,
        "Time(s)": 192
    },
    {
        "Altitude(m)": 710034.8265473854,
        "Argument of Periapsis(deg)": 0.011569965205363285,
        "Eccentricity": 0.0,
        "Inclination(deg)": 45.0,
        "Latitude(deg)": -25.58196949462741,
        "Longitude(deg)": -4.221547843303912,
        "Mean Anomaly(deg)": -37.37557993176944,
        "RAAN(deg)": 124.9890782910451,
        "Satellite Name": "Constellation 1 569",
        "Satellite Number": 569,
        "Semi-Major Axis(m)": 7083131.272910544,
        "Time(s)": 193
    },
    {
        "Altitude(m)": 710021.0018124917,
        "Argument of Periapsis(deg)": 0.01162991321160869,
        "Eccentricity": 0.0,
        "Inclination(deg)": 45.0,
        "Latitude(deg)": -25.544080706684575,
        "Longitude(deg)": -4.173134737762834,
        "Mean Anomaly(deg)": -37.31487879151956,
        "RAAN(deg)": 124.98902170187952,
        "Satellite Name": "Constellation 1 569",
        "Satellite Number": 569,
        "Semi-Major Axis(m)": 7083131.272910544,
        "Time(s)": 194
    },
    {
        "Altitude(m)": 710007.1788253227,
        "Argument of Periapsis(deg)": 0.011689861217854095,
        "Eccentricity": 0.0,
        "Inclination(deg)": 45.0,
        "Latitude(deg)": -25.50617281761255,
        "Longitude(deg)": -4.124754503931015,
        "Mean Anomaly(deg)": -37.254177651269615,
        "RAAN(deg)": 124.98896511271397,
        "Satellite Name": "Constellation 1 569",
        "Satellite Number": 569,
        "Semi-Major Axis(m)": 7083131.272910544,
        "Time(s)": 195
    },
    {
        "Altitude(m)": 709993.3576330295,
        "Argument of Periapsis(deg)": 0.0117498092240995,
        "Eccentricity": 0.0,
        "Inclination(deg)": 45.0,
        "Latitude(deg)": -25.46824587091358,
        "Longitude(deg)": -4.076407081614463,
        "Mean Anomaly(deg)": -37.193476511019725,
        "RAAN(deg)": 124.98890852354837,
        "Satellite Name": "Constellation 1 569",
        "Satellite Number": 569,
        "Semi-Major Axis(m)": 7083131.272910544,
        "Time(s)": 196
    },
    {
        "Altitude(m)": 709979.5382827289,
        "Argument of Periapsis(deg)": 0.011809757230344905,
        "Eccentricity": 0.0,
        "Inclination(deg)": 45.0,
        "Latitude(deg)": -25.430299910026633,
        "Longitude(deg)": -4.028092410619929,
        "Mean Anomaly(deg)": -37.13277537076983,
        "RAAN(deg)": 124.98885193438282,
        "Satellite Name": "Constellation 1 569",
        "Satellite Number": 569,
        "Semi-Major Axis(m)": 7083131.272910544,
        "Time(s)": 197
    },
    {
        "Altitude(m)": 709965.7208215289,
        "Argument of Periapsis(deg)": 0.011869705236590313,
        "Eccentricity": 0.0,
        "Inclination(deg)": 45.0,
        "Latitude(deg)": -25.392334978327625,
        "Longitude(deg)": -3.979810430755792,
        "Mean Anomaly(deg)": -37.072074230519924,
        "RAAN(deg)": 124.98879534521727,
        "Satellite Name": "Constellation 1 569",
        "Satellite Number": 569,
        "Semi-Major Axis(m)": 7083131.272910544,
        "Time(s)": 198
    },
    {
        "Altitude(m)": 709951.90529651,
        "Argument of Periapsis(deg)": 0.011929653242835719,
        "Eccentricity": 0.0,
        "Inclination(deg)": 45.0,
        "Latitude(deg)": -25.354351119129582,
        "Longitude(deg)": -3.9315610818320468,
        "Mean Anomaly(deg)": -37.011373090270055,
        "RAAN(deg)": 124.98873875605167,
        "Satellite Name": "Constellation 1 569",
        "Satellite Number": 569,
        "Semi-Major Axis(m)": 7083131.272910544,
        "Time(s)": 199
    }
]